{"type": "FeatureCollection", "features": [ {"type": "Feature", "properties": {"norad_id": 34117, "name": "COSMOS 2251 DEB", "group": "cosmos-2251-debris", "lat": 67.25447396398624, "lon": 1.3228782024099992, "alt_km": 722.3769767114591, "timestamp": "2025-12-26T13:39:19.373739+00:00", "meta": {"OBJECT_NAME": "COSMOS 2251 DEB", "OBJECT_ID": "1993-036KN", "EPOCH": "2025-12-25T22:18:47.337120", "MEAN_MOTION": 14.40065603, "ECCENTRICITY": 0.0055158, "INCLINATION": 74.0405, "RA_OF_ASC_NODE": 319.458, "ARG_OF_PERICENTER": 32.1667, "MEAN_ANOMALY": 328.2833, "EPHEMERIS_TYPE": 0, "CLASSIFICATION_TYPE": "U", "NORAD_CAT_ID": 34117, "ELEMENT_SET_NO": 999, "REV_AT_EPOCH": 88313, "BSTAR": 0.00075194, "MEAN_MOTION_DOT": 2.389e-05, "MEAN_MOTION_DDOT": 0}, "tle": {"line1": "1 34117U 93036KN  25359.92971455  .00002389  00000+0  75194-3 0  9993", "line2": "2 34117  74.0405 319.4580 0055158  32.1667 328.2833 14.40065603883138"}}, "geometry": {"type": "Point", "coordinates": [1.3228782024099992, 67.25447396398624]}}, {"type": "Feature", "properties": {"norad_id": 34118, "name": "COSMOS 2251 DEB", "group": "cosmos-2251-debris", "lat": -41.923601432437074, "lon": -153.67222982462184, "alt_km": 591.7057164258958, "timestamp": "2025-12-26T13:39:19.373750+00:00", "meta": {"OBJECT_NAME": "COSMOS 2251 DEB", "OBJECT_ID": "1993-036KP", "EPOCH": "2025-12-26T01:39:33.695136", "MEAN_MOTION": 14.94366588, "ECCENTRICITY": 0.00601724, "INCLINATION": 73.9512, "RA_OF_ASC_NODE": 222.3206, "ARG_OF_PERICENTER": 49.0891, "MEAN_ANOMALY": 99.7937, "EPHEMERIS_TYPE": 0, "CLASSIFICATION_TYPE": "U", "NORAD_CAT_ID": 34118, "ELEMENT_SET_NO": 999, "REV_AT_EPOCH": 89375, "BSTAR": 0.001375715, "MEAN_MOTION_DOT": 0.0001534, "MEAN_MOTION_DDOT": 0}, "tle": {"line1": "1 34118U 93036KP  25360.06913999  .00015340  00000+0  13757-2 0  9997", "line2": "2 34118  73.9512 222.3206 0060172  49.0891  99.7937 14.94366588893750"}}, "geometry": {"type": "Point", "coordinates": [-153.67222982462184, -41.923601432437074]}}, {"type": "Feature", "properties": {"norad_id": 34120, "name": "COSMOS 2251 DEB", "group": "cosmos-2251-debris", "lat": -61.641183601014674, "lon": 160.1314871598127, "alt_km": 886.8423551799997, "timestamp": "2025-12-26T13:39:19.373760+00:00", "meta": {"OBJECT_NAME": "COSMOS 2251 DEB", "OBJECT_ID": "1993-036KR", "EPOCH": "2025-12-25T21:19:40.909152", "MEAN_MOTION": 13.98697738, "ECCENTRICITY": 0.0182532, "INCLINATION": 73.9901, "RA_OF_ASC_NODE": 193.4446, "ARG_OF_PERICENTER": 18.2234, "MEAN_ANOMALY": 93.3876, "EPHEMERIS_TYPE": 0, "CLASSIFICATION_TYPE": "U", "NORAD_CAT_ID": 34120, "ELEMENT_SET_NO": 999, "REV_AT_EPOCH": 86164, "BSTAR": 0.00029319, "MEAN_MOTION_DOT": 4.62e-06, "MEAN_MOTION_DDOT": 0}, "tle": {"line1": "1 34120U 93036KR  25359.88866793  .00000462  00000+0  29319-3 0  9998", "line2": "2 34120  73.9901 193.4446 0182532  18.2234  93.3876 13.98697738861645"}}, "geometry": {"type": "Point", "coordinates": [160.1314871598127, -61.641183601014674]}}, {"type": "Feature", "properties": {"norad_id": 34121, "name": "COSMOS 2251 DEB", "group": "cosmos-2251-debris", "lat": 8.823325613935282, "lon": -109.08295369376343, "alt_km": 965.5944077103668, "timestamp": "2025-12-26T13:39:19.373770+00:00", "meta": {"OBJECT_NAME": "COSMOS 2251 DEB", "OBJECT_ID": "1993-036KS", "EPOCH": "2025-12-26T06:11:16.860192", "MEAN_MOTION": 13.91980451, "ECCENTRICITY": 0.02411137, "INCLINATION": 73.9924, "RA_OF_ASC_NODE": 74.004, "ARG_OF_PERICENTER": 276.6366, "MEAN_ANOMALY": 138.184, "EPHEMERIS_TYPE": 0, "CLASSIFICATION_TYPE": "U", "NORAD_CAT_ID": 34121, "ELEMENT_SET_NO": 999, "REV_AT_EPOCH": 85313, "BSTAR": 0.0013307047, "MEAN_MOTION_DOT": 2.128e-05, "MEAN_MOTION_DDOT": 0}, "tle": {"line1": "1 34121U 93036KS  25360.25783403  .00002128  00000+0  13307-2 0  9998", "line2": "2 34121  73.9924  74.0040 0241113 276.6366 138.1840 13.91980451853136"}}, "geometry": {"type": "Point", "coordinates": [-109.08295369376343, 8.823325613935282]}}, {"type": "Feature", "properties": {"norad_id": 34122, "name": "COSMOS 2251 DEB", "group": "cosmos-2251-debris", "lat": 68.88430219501589, "lon": -135.81054295896308, "alt_km": 698.0187638068146, "timestamp": "2025-12-26T13:39:19.373781+00:00", "meta": {"OBJECT_NAME": "COSMOS 2251 DEB", "OBJECT_ID": "1993-036KT", "EPOCH": "2025-12-25T16:34:08.283360", "MEAN_MOTION": 14.65194212, "ECCENTRICITY": 0.00850759, "INCLINATION": 74.0361, "RA_OF_ASC_NODE": 93.7165, "ARG_OF_PERICENTER": 346.9472, "MEAN_ANOMALY": 163.709, "EPHEMERIS_TYPE": 0, "CLASSIFICATION_TYPE": "U", "NORAD_CAT_ID": 34122, "ELEMENT_SET_NO": 999, "REV_AT_EPOCH": 88874, "BSTAR": 0.00109519, "MEAN_MOTION_DOT": 6.189e-05, "MEAN_MOTION_DDOT": 0}, "tle": {"line1": "1 34122U 93036KT  25359.69037365  .00006189  00000+0  10952-2 0  9998", "line2": "2 34122  74.0361  93.7165 0085075 346.9472 163.7090 14.65194212888742"}}, "geometry": {"type": "Point", "coordinates": [-135.81054295896308, 68.88430219501589]}}, {"type": "Feature", "properties": {"norad_id": 34127, "name": "COSMOS 2251 DEB", "group": "cosmos-2251-debris", "lat": 33.30066316879301, "lon": -171.8650031975947, "alt_km": 756.0453727799131, "timestamp": "2025-12-26T13:39:19.373791+00:00", "meta": {"OBJECT_NAME": "COSMOS 2251 DEB", "OBJECT_ID": "1993-036KY", "EPOCH": "2025-12-26T03:11:06.016128", "MEAN_MOTION": 14.31660585, "ECCENTRICITY": 0.01144927, "INCLINATION": 74.1802, "RA_OF_ASC_NODE": 19.657, "ARG_OF_PERICENTER": 216.8999, "MEAN_ANOMALY": 201.8533, "EPHEMERIS_TYPE": 0, "CLASSIFICATION_TYPE": "U", "NORAD_CAT_ID": 34127, "ELEMENT_SET_NO": 999, "REV_AT_EPOCH": 86963, "BSTAR": 0.0014461561, "MEAN_MOTION_DOT": 4.119e-05, "MEAN_MOTION_DDOT": 0}, "tle": {"line1": "1 34127U 93036KY  25360.13270852  .00004119  00000+0  14462-2 0  9995", "line2": "2 34127  74.1802  19.6570 0114492 216.8999 201.8533 14.31660585869637"}}, "geometry": {"type": "Point", "coordinates": [-171.8650031975947, 33.30066316879301]}}, {"type": "Feature", "properties": {"norad_id": 34128, "name": "COSMOS 2251 DEB", "group": "cosmos-2251-debris", "lat": -42.9969563724613, "lon": 104.01096892634762, "alt_km": 584.0810850161015, "timestamp": "2025-12-26T13:39:19.373801+00:00", "meta": {"OBJECT_NAME": "COSMOS 2251 DEB", "OBJECT_ID": "1993-036KZ", "EPOCH": "2025-12-26T05:12:34.038432", "MEAN_MOTION": 15.01671159, "ECCENTRICITY": 0.00260848, "INCLINATION": 73.9982, "RA_OF_ASC_NODE": 269.209, "ARG_OF_PERICENTER": 18.4855, "MEAN_ANOMALY": 105.107, "EPHEMERIS_TYPE": 0, "CLASSIFICATION_TYPE": "U", "NORAD_CAT_ID": 34128, "ELEMENT_SET_NO": 999, "REV_AT_EPOCH": 89369, "BSTAR": 0.0013723606, "MEAN_MOTION_DOT": 0.00017969, "MEAN_MOTION_DDOT": 0}, "tle": {"line1": "1 34128U 93036KZ  25360.21706063  .00017969  00000+0  13724-2 0  9990", "line2": "2 34128  73.9982 269.2090 0026084  18.4855 105.1070 15.01671159893692"}}, "geometry": {"type": "Point", "coordinates": [104.01096892634762, -42.9969563724613]}}, {"type": "Feature", "properties": {"norad_id": 34129, "name": "COSMOS 2251 DEB", "group": "cosmos-2251-debris", "lat": -47.05249885929919, "lon": -65.45052034487362, "alt_km": 644.0711665821464, "timestamp": "2025-12-26T13:39:19.373812+00:00", "meta": {"OBJECT_NAME": "COSMOS 2251 DEB", "OBJECT_ID": "1993-036LA", "EPOCH": "2025-12-26T05:44:42.892512", "MEAN_MOTION": 14.75986566, "ECCENTRICITY": 0.00335817, "INCLINATION": 74.0357, "RA_OF_ASC_NODE": 313.1056, "ARG_OF_PERICENTER": 30.6943, "MEAN_ANOMALY": 329.6186, "EPHEMERIS_TYPE": 0, "CLASSIFICATION_TYPE": "U", "NORAD_CAT_ID": 34129, "ELEMENT_SET_NO": 999, "REV_AT_EPOCH": 61497, "BSTAR": 0.0015475166, "MEAN_MOTION_DOT": 0.00010735, "MEAN_MOTION_DDOT": 0}, "tle": {"line1": "1 34129U 93036LA  25360.23938533  .00010735  00000+0  15475-2 0  9991", "line2": "2 34129  74.0357 313.1056 0033581  30.6943 329.6186 14.75986566614970"}}, "geometry": {"type": "Point", "coordinates": [-65.45052034487362, -47.05249885929919]}}, {"type": "Feature", "properties": {"norad_id": 34136, "name": "COSMOS 2251 DEB", "group": "cosmos-2251-debris", "lat": -40.585943003324104, "lon": 1.145260383298735, "alt_km": 694.4473548488013, "timestamp": "2025-12-26T13:39:19.373821+00:00", "meta": {"OBJECT_NAME": "COSMOS 2251 DEB", "OBJECT_ID": "1993-036LH", "EPOCH": "2025-12-26T01:01:34.800096", "MEAN_MOTION": 14.80159737, "ECCENTRICITY": 0.0084924, "INCLINATION": 74.0199, "RA_OF_ASC_NODE": 16.3936, "ARG_OF_PERICENTER": 135.693, "MEAN_ANOMALY": 259.0769, "EPHEMERIS_TYPE": 0, "CLASSIFICATION_TYPE": "U", "NORAD_CAT_ID": 34136, "ELEMENT_SET_NO": 999, "REV_AT_EPOCH": 90207, "BSTAR": 0.00035497466, "MEAN_MOTION_DOT": 2.831e-05, "MEAN_MOTION_DDOT": 0}, "tle": {"line1": "1 34136U 93036LH  25360.04276389  .00002831  00000+0  35497-3 0  9997", "line2": "2 34136  74.0199  16.3936 0084924 135.6930 259.0769 14.80159737902072"}}, "geometry": {"type": "Point", "coordinates": [1.145260383298735, -40.585943003324104]}}, {"type": "Feature", "properties": {"norad_id": 34139, "name": "COSMOS 2251 DEB", "group": "cosmos-2251-debris", "lat": 68.82467834843968, "lon": -84.62995407647884, "alt_km": 711.3304153095205, "timestamp": "2025-12-26T13:39:19.373832+00:00", "meta": {"OBJECT_NAME": "COSMOS 2251 DEB", "OBJECT_ID": "1993-036LL", "EPOCH": "2025-12-26T02:31:49.353312", "MEAN_MOTION": 14.59229708, "ECCENTRICITY": 0.00423893, "INCLINATION": 74.0296, "RA_OF_ASC_NODE": 228.5847, "ARG_OF_PERICENTER": 297.5153, "MEAN_ANOMALY": 224.0195, "EPHEMERIS_TYPE": 0, "CLASSIFICATION_TYPE": "U", "NORAD_CAT_ID": 34139, "ELEMENT_SET_NO": 999, "REV_AT_EPOCH": 88344, "BSTAR": 0.0012579256, "MEAN_MOTION_DOT": 5.985e-05, "MEAN_MOTION_DDOT": 0}, "tle": {"line1": "1 34139U 93036LL  25360.10543233  .00005985  00000+0  12579-2 0  9990", "line2": "2 34139  74.0296 228.5847 0042389 297.5153 224.0195 14.59229708883441"}}, "geometry": {"type": "Point", "coordinates": [-84.62995407647884, 68.82467834843968]}}]}